{"version": 0.6, "generator": "Overpass API 0.7.62.4 2390de5a", "osm3s": {"timestamp_osm_base": "2025-01-05T19:26:15Z", "copyright": "The data included in this document is from www.openstreetmap.org. The data is made available under ODbL."}, "elements": [{"type": "node", "id": 162994824, "lat": 51.3851575, "lon": -1.3180291, "tags": {"addr:city": "Newbury", "addr:postcode": "RG14 7HU", "addr:street": "Pinchington Lane", "addr:substreet": "Newbury Retail Park", "addr:unit": "15", "brand": "TK Maxx", "brand:wikidata": "Q23823668", "check_date": "2024-06-12", "dispensing": "yes", "name": "TK Maxx", "opening_hours": "Mo-Fr 09:00-20:00; Sa 09:00-19:00; Su 10:30-16:30", "shop": "department_store", "website": "https://www.tkmaxx.com/uk/en/store/newbury/unit-10-newbury-retail-park", "wheelchair": "yes"}}, {"type": "node", "id": 524010222, "lat": 51.3851934, "lon": -1.3171735, "tags": {"addr:city": "Newbury", "addr:postcode": "RG14 7HU", "addr:street": "Pinchington Lane", "addr:substreet": "Newbury Retail Park", "addr:unit": "12", "brand": "M&S Simply Food", "brand:wikidata": "Q714491", "check_date": "2024-07-21", "check_date:opening_hours": "2024-07-21", "contact:website": "https://www.marksandspencer.com/stores/newbury-retail-park-simply-food-0387", "fhrs:id": "203654", "name": "M&S Simply Food", "opening_hours": "Mo-Sa 08:00-20:00; Su 10:00-16:00", "shop": "convenience", "wheelchair": "yes"}}, {"type": "node", "id": 903279993, "lat": 51.1943815, "lon": -1.9030903, "tags": {"brand": "The Co-operative Food", "brand:wikidata": "Q107617274", "check_date:opening_hours": "2023-09-08", "name": "The Co-operative Food", "opening_hours": "Mo-Su 07:00-22:00", "operator": "The Southern Co-operative", "operator:wikidata": "Q7569773", "shop": "convenience", "website": "https://stores.southern.coop/wiltshire/salisbury/high-street.html"}}, {"type": "node", "id": 1040162905, "lat": 51.1451588, "lon": -2.7192011}, {"type": "node", "id": 1040162909, "lat": 51.1454676, "lon": -2.7190511}, {"type": "node", "id": 1040162911, "lat": 51.1451747, "lon": -2.7192584}, {"type": "node", "id": 1040162915, "lat": 51.1452505, "lon": -2.7202126}, {"type": "node", "id": 1040162916, "lat": 51.1450072, "lon": -2.7193381}, {"type": "node", "id": 1040162917, "lat": 51.145351, "lon": -2.720211}, {"type": "node", "id": 1040162918, "lat": 51.1453349, "lon": -2.720153}, {"type": "node", "id": 1040162920, "lat": 51.145662, "lon": -2.7199911}, {"type": "node", "id": 1040162921, "lat": 51.1456802, "lon": -2.7200566}, {"type": "node", "id": 1040162923, "lat": 51.1457365, "lon": -2.7200168}, {"type": "node", "id": 1388321038, "lat": 51.1450231, "lon": -2.719297}, {"type": "node", "id": 1388321040, "lat": 51.1450301, "lon": -2.719322}, {"type": "node", "id": 1507563279, "lat": 51.1426396, "lon": -2.7314657}, {"type": "node", "id": 1507563282, "lat": 51.1427295, "lon": -2.7305579}, {"type": "node", "id": 1507563298, "lat": 51.1427794, "lon": -2.7317188}, {"type": "node", "id": 1507563301, "lat": 51.1431351, "lon": -2.7318082}, {"type": "node", "id": 1507563305, "lat": 51.1432621, "lon": -2.7306919}, {"type": "node", "id": 1647305031, "lat": 51.3823835, "lon": -1.318691}, {"type": "node", "id": 1647305032, "lat": 51.3823355, "lon": -1.31702}, {"type": "node", "id": 1647305033, "lat": 51.3830938, "lon": -1.3183432}, {"type": "node", "id": 1647305034, "lat": 51.3823289, "lon": -1.3171248}, {"type": "node", "id": 1647305035, "lat": 51.3824439, "lon": -1.3177401}, {"type": "node", "id": 1647305037, "lat": 51.383153, "lon": -1.3183529}, {"type": "node", "id": 1647305038, "lat": 51.3825488, "lon": -1.3170522}, {"type": "node", "id": 1647305039, "lat": 51.3831775, "lon": -1.3179679}, {"type": "node", "id": 1647305041, "lat": 51.3830646, "lon": -1.3188021}, {"type": "node", "id": 1647305042, "lat": 51.383171, "lon": -1.3171533}, {"type": "node", "id": 1647305043, "lat": 51.3822286, "lon": -1.3171086}, {"type": "node", "id": 1647305044, "lat": 51.38312, "lon": -1.3179585}, {"type": "node", "id": 1845907693, "lat": 51.150286, "lon": -2.7206144, "tags": {"name": "Off License", "shop": "convenience"}}, {"type": "node", "id": 1874787056, "lat": 51.1477721, "lon": -2.7170137}, {"type": "node", "id": 1874787120, "lat": 51.1478352, "lon": -2.7170888}, {"type": "node", "id": 1874787209, "lat": 51.1477671, "lon": -2.7170432}, {"type": "node", "id": 1874787258, "lat": 51.1478226, "lon": -2.7171693}, {"type": "node", "id": 1874787265, "lat": 51.148075, "lon": -2.7171773}, {"type": "node", "id": 1874787378, "lat": 51.1478495, "lon": -2.7170124}, {"type": "node", "id": 1874787408, "lat": 51.1477671, "lon": -2.7171317}, {"type": "node", "id": 1874787411, "lat": 51.1480632, "lon": -2.7172041}, {"type": "node", "id": 2074770149, "lat": 51.3809205, "lon": -1.3415338, "tags": {"brand": "Sainsbury's Local", "brand:wikidata": "Q13218434", "brand:wikipedia": "en:Sainsbury's Local", "fhrs:id": "665223", "name": "Sainsbury's Local", "shop": "convenience", "source": "local knowledge", "website": "https://stores.sainsburys.co.uk/4528/newbury-andover-road-local"}}, {"type": "node", "id": 2352230450, "lat": 51.1520925, "lon": -2.6842624}, {"type": "node", "id": 2352230491, "lat": 51.1520291, "lon": -2.6842868}, {"type": "node", "id": 2352230495, "lat": 51.1520177, "lon": -2.6842115}, {"type": "node", "id": 2365459517, "lat": 51.15208, "lon": -2.6841876}, {"type": "node", "id": 3478522481, "lat": 51.1480028, "lon": -2.5053203}, {"type": "node", "id": 3478522483, "lat": 51.1480337, "lon": -2.505099}, {"type": "node", "id": 3478522484, "lat": 51.1479044, "lon": -2.5050531}, {"type": "node", "id": 3478522485, "lat": 51.1478735, "lon": -2.5052744}, {"type": "node", "id": 3481217522, "lat": 51.1482999, "lon": -2.505599, "tags": {"fixme": "check name.", "name": "Delena's on the corner", "shop": "bakery"}}, {"type": "node", "id": 3626958631, "lat": 51.1476755, "lon": -2.7157712, "tags": {"addr:city": "Glastonbury", "addr:housenumber": "32-34", "addr:postcode": "BA6 9DX", "addr:street": "High Street", "brand": "The Co-operative Food", "brand:wikidata": "Q107617274", "fhrs:id": "175472", "name": "The Co-operative Food", "opening_hours": "Mo-Th 07:00-21:00; Fr-Sa 07:00-22:00; Su 08:00-21:00", "operator": "Radstock Co-operative Society", "shop": "supermarket", "website": "http://www.radstock.coop/store/glastonbury"}}, {"type": "node", "id": 3626958632, "lat": 51.1475678, "lon": -2.7166711, "tags": {"addr:city": "Glastonbury", "addr:housenumber": "14", "addr:postcode": "BA6 9DU", "addr:street": "High Street", "brand": "Burns the Bread", "brand:wikidata": "Q102003578", "fhrs:id": "1757114;1756710", "name": "Burns the Bread", "shop": "bakery"}}, {"type": "node", "id": 4771685224, "lat": 51.3821828, "lon": -1.3171619}, {"type": "node", "id": 4771685225, "lat": 51.3822638, "lon": -1.3173405}, {"type": "node", "id": 4771685226, "lat": 51.3823202, "lon": -1.3173497}, {"type": "node", "id": 4771685227, "lat": 51.3823173, "lon": -1.3173949}, {"type": "node", "id": 4771685228, "lat": 51.3823625, "lon": -1.3174023}, {"type": "node", "id": 4771685229, "lat": 51.3823532, "lon": -1.3175485}, {"type": "node", "id": 4771685230, "lat": 51.38215, "lon": -1.3176922}, {"type": "node", "id": 4771685231, "lat": 51.3821543, "lon": -1.3176245}, {"type": "node", "id": 4771685232, "lat": 51.3823722, "lon": -1.31766}, {"type": "node", "id": 4771685233, "lat": 51.382379, "lon": -1.3175527}, {"type": "node", "id": 5178889309, "lat": 51.3824298, "lon": -1.3170353}, {"type": "node", "id": 5178889310, "lat": 51.3824324, "lon": -1.3169931}, {"type": "node", "id": 5178889311, "lat": 51.3825514, "lon": -1.3170123}, {"type": "node", "id": 8402867702, "lat": 51.1424114, "lon": -2.7336959}, {"type": "node", "id": 8402867703, "lat": 51.142337, "lon": -2.7334857}, {"type": "node", "id": 8402867704, "lat": 51.1422926, "lon": -2.7335255}, {"type": "node", "id": 8402867705, "lat": 51.1421993, "lon": -2.7332617}, {"type": "node", "id": 8402867706, "lat": 51.1417659, "lon": -2.7336513}, {"type": "node", "id": 8402867707, "lat": 51.1418992, "lon": -2.7340282}, {"type": "node", "id": 8402867708, "lat": 51.1420652, "lon": -2.733879}, {"type": "node", "id": 8402867709, "lat": 51.1420997, "lon": -2.7339763}, {"type": "node", "id": 9217908587, "lat": 51.3861987, "lon": -1.3174313, "tags": {"addr:city": "Newbury", "addr:postcode": "RG14 7HU", "addr:street": "Pinchington Lane", "addr:substreet": "Newbury Retail Park", "addr:unit": "10", "branch": "Newbury, Pinchington Lane", "brand": "Lidl", "brand:wikidata": "Q151954", "brand:wikipedia": "en:Lidl", "check_date": "2024-06-12", "fhrs:id": "1288250", "name": "Lidl", "opening_hours": "Mo-Sa 08:00-22:00; Su 10:00-16:00; PH 08:00-20:00", "shop": "supermarket", "toilets": "yes", "toilets:wheelchair": "yes", "website": "https://www.lidl.co.uk/s/en-GB/store-finder/newbury/pinchington-lane/", "wheelchair": "yes"}}, {"type": "node", "id": 9513710071, "lat": 51.1428004, "lon": -2.7315061}, {"type": "node", "id": 9513710072, "lat": 51.1431714, "lon": -2.7314411}, {"type": "node", "id": 9513710073, "lat": 51.1431875, "lon": -2.7314451}, {"type": "node", "id": 9924401370, "lat": 51.1480972, "lon": -2.7141166, "tags": {"addr:city": "Glastonbury", "addr:housenumber": "45", "addr:postcode": "BA6 9DS", "addr:street": "High Street", "fhrs:id": "1757487", "name": "Earthfare", "organic": "only", "shop": "supermarket"}}, {"type": "node", "id": 9924454023, "lat": 51.1476749, "lon": -2.7169192}, {"type": "node", "id": 9924574667, "lat": 51.1478305, "lon": -2.7171341}, {"type": "node", "id": 9924574668, "lat": 51.1480425, "lon": -2.7172856}, {"type": "node", "id": 9924574669, "lat": 51.1480509, "lon": -2.7172413}, {"type": "node", "id": 9924574670, "lat": 51.1476517, "lon": -2.7170692}, {"type": "node", "id": 9924574672, "lat": 51.1477696, "lon": -2.7170283}, {"type": "node", "id": 9924574673, "lat": 51.1476653, "lon": -2.7169817}, {"type": "node", "id": 10316969092, "lat": 51.3884768, "lon": -1.3152544}, {"type": "node", "id": 10316969093, "lat": 51.3883827, "lon": -1.3152037}, {"type": "node", "id": 10316969094, "lat": 51.3883452, "lon": -1.3153826}, {"type": "node", "id": 10573406147, "lat": 51.1426127, "lon": -2.7287502}, {"type": "node", "id": 10573406148, "lat": 51.142615, "lon": -2.7286452}, {"type": "node", "id": 10573406149, "lat": 51.1424954, "lon": -2.7286385}, {"type": "node", "id": 10573406150, "lat": 51.1424932, "lon": -2.7287407}, {"type": "node", "id": 11078567726, "lat": 51.1943977, "lon": -1.9040145}, {"type": "node", "id": 11078567727, "lat": 51.1943641, "lon": -1.9041071}, {"type": "node", "id": 11078567728, "lat": 51.1942892, "lon": -1.9040379}, {"type": "node", "id": 11078567729, "lat": 51.1943228, "lon": -1.9039453}, {"type": "node", "id": 11350886160, "lat": 51.1418939, "lon": -2.7340133}, {"type": "node", "id": 11513848999, "lat": 51.3884492, "lon": -1.3153861}, {"type": "node", "id": 11513849000, "lat": 51.3884374, "lon": -1.3154322}, {"type": "node", "id": 11513849001, "lat": 51.3885087, "lon": -1.3154182}, {"type": "node", "id": 11513849002, "lat": 51.3884157, "lon": -1.3155357}, {"type": "node", "id": 11513849003, "lat": 51.3884771, "lon": -1.3155688}, {"type": "node", "id": 11535008009, "lat": 51.3825041, "lon": -1.3406287, "tags": {"addr:city": "Newbury", "addr:housenumber": "4", "addr:postcode": "RG14 6QW", "addr:street": "Monument Close", "check_date": "2024-07-15", "check_date:opening_hours": "2024-07-15", "fhrs:id": "1211565", "name": "Co-op", "not:brand:wikidata": "Q3277439", "opening_hours": "Mo-Su 07:00-22:00", "operator": "The Co-operative Group", "operator:wikidata": "Q117202", "phone": "+44 1635 43804", "shop": "supermarket", "website": "https://www.coop.co.uk/store-finder/RG14-6QW/4-monument-close-essex-street"}}, {"type": "node", "id": 11669408318, "lat": 51.1466812, "lon": -2.7179553, "tags": {"brand": "Premier", "brand:wikidata": "Q7240340", "fhrs:id": "1757166", "name": "Abbey Convenience Store", "shop": "convenience"}}, {"type": "node", "id": 11669448617, "lat": 51.1474793, "lon": -2.718166, "tags": {"fhrs:id": "1757812", "name": "Stephens Butchers", "shop": "butcher"}}, {"type": "node", "id": 11756779397, "lat": 51.3824823, "lon": -1.3407093, "tags": {"brand": "Premier", "brand:wikidata": "Q7240340", "fhrs:id": "1677383", "name": "Premier", "shop": "convenience"}}, {"type": "way", "id": 89761174, "nodes": [1040162909, 1040162911, 1040162905, 1388321038, 1388321040, 1040162916, 1040162915, 1040162918, 1040162917, 1040162920, 1040162921, 1040162923, 1040162909], "tags": {"addr:city": "Glastonbury", "addr:postcode": "BA6 9ED", "addr:street": "Street Road", "alt_name": "Morrisons Glastonbury", "brand": "Morrisons", "brand:wikidata": "Q922344", "brand:wikipedia": "en:Morrisons", "building": "retail", "fhrs:id": "1756893", "name": "Morrisons", "opening_hours": "Mo-Sa 07:00-22:00; Su 10:00-16:00", "shop": "supermarket", "toilets:wheelchair": "yes", "website": "https://my.morrisons.com/storefinder/327/glastonbury", "wheelchair": "yes"}}, {"type": "way", "id": 137426230, "nodes": [1507563279, 1507563282, 1507563305, 9513710073, 9513710072, 1507563301, 1507563298, 9513710071, 1507563279], "tags": {"addr:city": "Glastonbury", "addr:postcode": "BA6 9XE", "addr:street": "Wirral Park Road", "alt_name": "Tesco Glastonbury Superstore", "brand": "Tesco", "brand:wikidata": "Q487494", "brand:wikipedia": "en:Tesco", "building": "yes", "contact:website": "https://www.tesco.com/store-locator/glastonbury/wirrall-park", "fhrs:id": "1757084", "name": "Tesco", "opening_hours": "Mo-Sa 06:00- 24:00; Su 10:00-16:00", "shop": "supermarket"}}, {"type": "way", "id": 151891665, "nodes": [1647305031, 1647305035, 4771685230, 4771685231, 4771685232, 4771685233, 4771685229, 4771685228, 4771685227, 4771685226, 4771685225, 4771685224, 1647305043, 1647305034, 1647305032, 5178889309, 5178889310, 5178889311, 1647305038, 1647305042, 1647305044, 1647305039, 1647305037, 1647305033, 1647305041, 1647305031], "tags": {"addr:city": "Newbury", "addr:postcode": "RG14 7HU", "addr:street": "Pinchington Lane", "brand": "Tesco Extra", "brand:wikidata": "Q25172225", "building": "supermarket", "contact:website": "https://www.tesco.com/store-locator/newbury/pinchington-ln", "fhrs:id": "203622", "name": "Tesco Extra", "shop": "supermarket"}}, {"type": "way", "id": 227917473, "nodes": [2352230450, 2365459517, 2352230495, 2352230491, 2352230450], "tags": {"shop": "convenience"}}, {"type": "way", "id": 340607727, "nodes": [3478522481, 3478522483, 3478522484, 3478522485, 3478522481], "tags": {"brand": "Co-op Food", "brand:wikidata": "Q3277439", "building": "shop", "check_date": "2024-07-15", "check_date:opening_hours": "2024-07-15", "name": "Co-op Food", "opening_hours": "Mo-Su 07:00-22:00", "operator": "The Co-operative Group", "operator:wikidata": "Q117202", "shop": "convenience", "website": "https://www.coop.co.uk/store-finder/BA4-6JP/victoria-square"}}, {"type": "way", "id": 904808873, "nodes": [8402867702, 8402867703, 8402867704, 8402867705, 8402867706, 11350886160, 8402867707, 8402867708, 8402867709, 8402867702], "tags": {"addr:city": "Glastonbury", "addr:postcode": "BA6 9FW", "addr:street": "Beckery New Road", "brand": "ALDI", "brand:wikidata": "Q41171672", "building": "retail", "fhrs:id": "1757277", "name": "ALDI", "shop": "supermarket", "website": "https://stores.aldi.co.uk/south-west/glastonbury/moorlands-enterprise-park"}}, {"type": "way", "id": 1082928684, "nodes": [9924574670, 9924574673, 9924454023, 1874787378, 1874787265, 1874787411, 1874787056, 9924574672, 1874787209, 1874787120, 9924574669, 9924574668, 9924574667, 1874787258, 1874787408, 9924574670], "tags": {"building": "yes", "name": "The Gauntlet", "shop": "mall", "source": "Bing", "website": "https://thegauntletglastonbury.com/"}}, {"type": "way", "id": 1128466281, "nodes": [11513849003, 11513849001, 11513848999, 10316969092, 10316969093, 10316969094, 11513849000, 11513849002, 11513849003], "tags": {"building": "yes", "fhrs:id": "1431700", "name": "Greenham Court Stores", "shop": "convenience"}}, {"type": "way", "id": 1134124923, "nodes": [10573406147, 10573406148, 10573406149, 10573406150, 10573406147], "tags": {"addr:city": "Glastonbury", "addr:postcode": "BA6 9XE", "addr:street": "Wirral Park Road", "brand": "Londis", "brand:wikidata": "Q21008564", "building": "yes", "name": "Londis", "shop": "convenience"}}, {"type": "way", "id": 1193533337, "nodes": [11078567726, 11078567727, 11078567728, 11078567729, 11078567726], "tags": {"building": "yes", "name": "The Bridge Garage", "phone": "+441980621050", "shop": "convenience"}}]}